{"spkid": "54114211", "covariance": {"data": [["2.126498448588698E-13", "-1.882179682649693E-13", "-3.732530771433649E-11", "-1.420342178388768E-11", "-2.549913197628561E-11", "1.986081840646217E-11"], ["-1.882179682649693E-13", "1.667171342886109E-13", "3.311979004887074E-11", "1.237935325362121E-11", "2.265669460148091E-11", "-1.742170857321987E-11"], ["-3.732530771433649E-11", "3.311979004887074E-11", "1.148523953651118E-8", "1.802762312516294E-9", "9.002342487559894E-9", "-3.089815993124096E-9"], ["-1.420342178388768E-11", "1.237935325362121E-11", "1.802762312516294E-9", "4.911098455806365E-9", "-2.235900822625128E-9", "-2.854982793617757E-9"], ["-2.549913197628561E-11", "2.265669460148091E-11", "9.002342487559894E-9", "-2.235900822625128E-9", "1.075196844315445E-8", "-1.170805130352947E-9"], ["1.986081840646217E-11", "-1.742170857321987E-11", "-3.089815993124096E-9", "-2.854982793617757E-9", "-1.170805130352947E-9", "3.477150621961322E-9"]], "elements": [{"label": "e", "units": null, "value": ".2118889997147373", "title": "eccentricity", "name": "e", "sigma": 4.611397237919e-07}, {"sigma": 4.08310095746616e-07, "name": "q", "title": "perihelion distance", "value": ".7003133461599812", "units": "au", "label": "q"}, {"label": "tp", "sigma": 0.000107169209834314, "name": "tp", "title": "time of perihelion passage", "value": "2456754.013953343853", "units": "TDB"}, {"sigma": 7.00792298459848e-05, "name": "om", "units": "deg", "value": "324.4935167164948", "title": "longitude of the ascending node", "label": "node"}, {"name": "w", "sigma": 0.000103691699007946, "value": "130.9806672415737", "title": "argument of perihelion", "units": "deg", "label": "peri"}, {"label": "i", "units": "deg", "title": "inclination", "value": "14.23625847147134", "name": "i", "sigma": 5.89673691287081e-05}], "labels": ["e", "q", "tp", "node", "peri", "i"], "epoch": "2456769.5"}, "elements": [{"sigma": "4.6339E-7", "name": "e", "units": null, "title": "eccentricity", "value": ".2118161007500678", "label": "e"}, {"sigma": "9.5857E-9", "name": "a", "value": ".8889043932873212", "title": "semi-major axis", "units": "au", "label": "a"}, {"label": "q", "name": "q", "sigma": "4.0984E-7", "units": "au", "value": ".700620130761596", "title": "perihelion distance"}, {"label": "i", "units": "deg", "title": "inclination; angle with respect to x-y ecliptic plane", "value": "14.23418743754543", "sigma": "5.8973E-5", "name": "i"}, {"sigma": "6.9828E-5", "name": "om", "units": "deg", "title": "longitude of the ascending node", "value": "324.4162166863152", "label": "node"}, {"label": "peri", "units": "deg", "title": "argument of perihelion", "value": "131.0441168665134", "name": "w", "sigma": ".00010333"}, {"name": "ma", "sigma": ".00015858", "units": "deg", "title": "mean anomaly", "value": "190.5881947022513", "label": "M"}, {"label": "tp", "name": "tp", "sigma": ".00013588", "value": "2461344.552956325348", "title": "time of perihelion passage", "units": "TDB"}, {"label": "period", "units": "d", "title": "sidereal orbital period", "value": "306.1124588453604", "sigma": "4.9515E-6", "name": "per"}, {"label": "n", "name": "n", "sigma": "1.9023E-8", "units": "deg/d", "value": "1.176038379352152", "title": "mean motion"}, {"sigma": "1.1616E-8", "name": "ad", "units": "au", "value": "1.077188655813046", "title": "aphelion distance", "label": "Q"}], "epoch": "2461200.5"}